{
    "CCSDS_OMM_VERS": "3.0",
    "COMMENT": "GENERATED VIA SPACE-TRACK.ORG API",
    "CREATION_DATE": "2025-11-23T21:08:43",
    "ORIGINATOR": "18 SPCS",
    "OBJECT_NAME": "GALILEO 30 (10E)",
    "OBJECT_ID": "2024-079C",
    "CENTER_NAME": "EARTH",
    "REF_FRAME": "TEME",
    "TIME_SYSTEM": "UTC",
    "MEAN_ELEMENT_THEORY": "SGP4",
    "EPOCH": "2025-11-23T02:42:26.909280",
    "MEAN_MOTION": "1.70474744",
    "ECCENTRICITY": "0.00036324",
    "INCLINATION": "54.9846",
    "RA_OF_ASC_NODE": "106.8433",
    "ARG_OF_PERICENTER": "112.2840",
    "MEAN_ANOMALY": "247.7189",
    "EPHEMERIS_TYPE": "0",
    "CLASSIFICATION_TYPE": "U",
    "NORAD_CAT_ID": "59600",
    "ELEMENT_SET_NO": "999",
    "REV_AT_EPOCH": "985",
    "BSTAR": "0.00000000000000",
    "MEAN_MOTION_DOT": "0.00000035",
    "MEAN_MOTION_DDOT": "0.0000000000000",
    "SEMIMAJOR_AXIS": "29600.234",
    "PERIOD": "844.700",
    "APOAPSIS": "23232.851",
    "PERIAPSIS": "23211.347",
    "OBJECT_TYPE": "PAYLOAD",
    "RCS_SIZE": "LARGE",
    "COUNTRY_CODE": "ESA",
    "LAUNCH_DATE": "2024-04-28",
    "SITE": "AFETR",
    "DECAY_DATE": null,
    "FILE": "4896238",
    "GP_ID": "303343268",
    "TLE_LINE0": "0 GALILEO 30 (10E)",
    "TLE_LINE1": "1 59600U 24079C   25327.11281145  .00000035  00000-0  00000-0 0  9992",
    "TLE_LINE2": "2 59600  54.9846 106.8433 0003632 112.2840 247.7189  1.70474744  9853"
}